{
  "norad_id": 68465,
  "name": "TRANSPORTER-16 OBJECT BB",
  "history": [
    {
      "epoch": "2026-04-14T03:25:37.560576Z",
      "apogee_km": 515.5325360229454,
      "perigee_km": 512.8909744390148,
      "latitude_deg": -3.282784189091095e-05,
      "longitude_deg": 169.82134242232235,
      "height_km": 516.168843098643,
      "semi_major_axis_km": 6892.34875523098,
      "eccentricity": 0.00019163,
      "inclination_deg": 97.4472,
      "raan_deg": 63.5513,
      "arg_perigee_deg": 328.7758,
      "mean_anomaly_deg": 31.3361,
      "mean_motion_rev_day": 15.17231654
    }
  ]
}