TRANSPORTER-16 OBJECT BB
1 68465U 26067BB  26104.14279584  .00002032  00000+0  10551-3 0  9994
2 68465  97.4472  63.5513 0001916 328.7758  31.3361 15.17231654  2222
